{"fetched_at":"2026-07-08T07:04:16.929Z","source":"https://celestrak.org/NORAD/elements/gp.php?NAME=SENTINEL&FORMAT=JSON","constellation":"sentinel-1","records":[{"OBJECT_NAME":"SENTINEL-1A","OBJECT_ID":"2014-016A","EPOCH":"2026-07-07T20:53:16.987200","CLASSIFICATION_TYPE":"U","MEAN_MOTION":14.59200352,"ECCENTRICITY":0.0001411,"INCLINATION":98.1785,"RA_OF_ASC_NODE":196.1011,"ARG_OF_PERICENTER":87.4243,"MEAN_ANOMALY":272.7118,"EPHEMERIS_TYPE":0,"NORAD_CAT_ID":39634,"ELEMENT_SET_NO":999,"REV_AT_EPOCH":65303,"BSTAR":0.000010315,"MEAN_MOTION_DOT":3e-8,"MEAN_MOTION_DDOT":0},{"OBJECT_NAME":"SENTINEL-1C","OBJECT_ID":"2024-235A","EPOCH":"2026-07-07T20:11:16.066752","CLASSIFICATION_TYPE":"U","MEAN_MOTION":14.59198571,"ECCENTRICITY":0.0001379,"INCLINATION":98.1824,"RA_OF_ASC_NODE":195.855,"ARG_OF_PERICENTER":89.8926,"MEAN_ANOMALY":270.2432,"EPHEMERIS_TYPE":0,"NORAD_CAT_ID":62261,"ELEMENT_SET_NO":999,"REV_AT_EPOCH":8442,"BSTAR":0.000037578,"MEAN_MOTION_DOT":0.00000131,"MEAN_MOTION_DDOT":0},{"OBJECT_NAME":"SENTINEL-1D","OBJECT_ID":"2025-251A","EPOCH":"2026-07-07T11:08:24.130752","CLASSIFICATION_TYPE":"U","MEAN_MOTION":14.59197696,"ECCENTRICITY":0.00013353,"INCLINATION":98.1836,"RA_OF_ASC_NODE":195.5384,"ARG_OF_PERICENTER":91.52,"MEAN_ANOMALY":268.6153,"EPHEMERIS_TYPE":0,"NORAD_CAT_ID":66315,"ELEMENT_SET_NO":999,"REV_AT_EPOCH":3568,"BSTAR":-0.0000021272,"MEAN_MOTION_DOT":-5.6e-7,"MEAN_MOTION_DDOT":0}]}
